{
  "type": "FeatureCollection",
  "features": [
    {
      "type": "Feature",
      "properties": { "name": "Mau Forest Complex", "area_ha": 273300, "type": "indigenous" },
      "geometry": { "type": "Polygon", "coordinates": [[[35.65,-0.30],[36.10,-0.30],[36.10,-0.75],[35.65,-0.75],[35.65,-0.30]]] }
    },
    {
      "type": "Feature",
      "properties": { "name": "Aberdare Forest", "area_ha": 103300, "type": "indigenous" },
      "geometry": { "type": "Polygon", "coordinates": [[[36.55,-0.20],[36.95,-0.20],[36.95,-0.75],[36.55,-0.75],[36.55,-0.20]]] }
    },
    {
      "type": "Feature",
      "properties": { "name": "Mount Kenya Forest", "area_ha": 213500, "type": "indigenous" },
      "geometry": { "type": "Polygon", "coordinates": [[[37.10,-0.05],[37.55,-0.05],[37.55,-0.40],[37.10,-0.40],[37.10,-0.05]]] }
    },
    {
      "type": "Feature",
      "properties": { "name": "Kakamega Forest", "area_ha": 23800, "type": "indigenous" },
      "geometry": { "type": "Polygon", "coordinates": [[[34.80,0.30],[34.95,0.30],[34.95,0.40],[34.80,0.40],[34.80,0.30]]] }
    },
    {
      "type": "Feature",
      "properties": { "name": "Mount Elgon Forest", "area_ha": 73705, "type": "indigenous" },
      "geometry": { "type": "Polygon", "coordinates": [[[34.45,1.05],[34.75,1.05],[34.75,1.20],[34.45,1.20],[34.45,1.05]]] }
    },
    {
      "type": "Feature",
      "properties": { "name": "Cherangany Forest", "area_ha": 95600, "type": "indigenous" },
      "geometry": { "type": "Polygon", "coordinates": [[[35.30,1.20],[35.55,1.20],[35.55,1.40],[35.30,1.40],[35.30,1.20]]] }
    },
    {
      "type": "Feature",
      "properties": { "name": "Arabuko-Sokoke Forest", "area_ha": 41600, "type": "coastal" },
      "geometry": { "type": "Polygon", "coordinates": [[[39.85,-3.25],[40.05,-3.25],[40.05,-3.40],[39.85,-3.40],[39.85,-3.25]]] }
    },
    {
      "type": "Feature",
      "properties": { "name": "Karura Forest", "area_ha": 1041, "type": "urban" },
      "geometry": { "type": "Polygon", "coordinates": [[[36.81,-1.22],[36.85,-1.22],[36.85,-1.25],[36.81,-1.25],[36.81,-1.22]]] }
    },
    {
      "type": "Feature",
      "properties": { "name": "Ngong Road Forest", "area_ha": 1224, "type": "urban" },
      "geometry": { "type": "Polygon", "coordinates": [[[36.71,-1.30],[36.76,-1.30],[36.76,-1.34],[36.71,-1.34],[36.71,-1.30]]] }
    },
    {
      "type": "Feature",
      "properties": { "name": "Shimba Hills Forest", "area_ha": 25200, "type": "coastal" },
      "geometry": { "type": "Polygon", "coordinates": [[[39.35,-4.20],[39.50,-4.20],[39.50,-4.35],[39.35,-4.35],[39.35,-4.20]]] }
    }
  ]
}